OBJECT_NAME,OBJECT_ID,EPOCH,MEAN_MOTION,ECCENTRICITY,INCLINATION,RA_OF_ASC_NODE,ARG_OF_PERICENTER,MEAN_ANOMALY,EPHEMERIS_TYPE,CLASSIFICATION_TYPE,NORAD_CAT_ID,ELEMENT_SET_NO,REV_AT_EPOCH,BSTAR,MEAN_MOTION_DOT,MEAN_MOTION_DDOT
QIANFAN-145,2026-108A,2026-06-15T17:51:01.382400,14.01851653,.00118512,89.0106,22.3872,115.0390,245.2022,0,U,69104,999,413,-.13565737E+1,-.1923038E-1,0
QIANFAN-146,2026-108B,2026-06-15T22:05:04.677792,14.14384752,.00170097,89.0113,22.3401,112.8435,247.4551,0,U,69105,999,417,.24549796E-4,.61E-6,0
QIANFAN-147,2026-108C,2026-06-15T13:54:35.691264,14.03726001,.00138334,89.0101,22.3987,131.2362,229.0014,0,U,69106,999,411,-.13296131E+1,-.1947601E-1,0
QIANFAN-148,2026-108D,2026-06-15T22:20:58.850016,14.06373225,.00170381,89.0089,22.3571,115.7540,244.5403,0,U,69107,999,416,.23229451E-4,.52E-6,0
QIANFAN-149,2026-108E,2026-06-15T12:02:18.819744,14.01822833,.00140768,89.0106,22.4064,130.3758,229.8653,0,U,69108,999,410,-.13252911E+1,-.1881066E-1,0
QIANFAN-150,2026-108F,2026-06-15T15:03:57.091968,14.04834327,.0018725,89.0104,22.3890,129.5566,230.7274,0,U,69109,999,412,-.13738595E+1,-.2046775E-1,0
QIANFAN-151,2026-108G,2026-06-15T14:59:19.822272,14.04263137,.00190444,89.0102,22.3880,130.4644,229.8201,0,U,69110,999,412,-.14003848E+1,-.2063863E-1,0
QIANFAN-152,2026-108H,2026-06-15T16:22:14.406816,14.06139878,.00145184,89.0106,22.3786,122.3750,237.8840,0,U,69111,999,413,-.12914348E+1,-.1973708E-1,0
QIANFAN-153,2026-108J,2026-06-15T17:59:50.996256,14.04077041,.00122538,89.0095,22.3690,126.4160,233.8153,0,U,69112,999,414,-.13333295E+1,-.1963826E-1,0
QIANFAN-154,2026-108K,2026-06-15T17:47:40.423776,14.05354472,.00132686,89.0110,22.3691,124.9921,235.2509,0,U,69113,999,414,-.13468163E+1,-.2025316E-1,0
QIANFAN-155,2026-108L,2026-06-15T21:22:22.986048,14.07274489,.00174482,89.0104,22.3529,113.7799,246.5216,0,U,69114,999,416,.83961234E-4,.155E-5,0
QIANFAN-156,2026-108M,2026-06-15T15:47:10.639392,14.06201731,.00176454,89.0108,22.3751,119.2580,241.0369,0,U,69115,999,413,-.12577311E+1,-.1928425E-1,0
QIANFAN-157,2026-108N,2026-06-15T16:37:49.957248,14.09179997,.00154671,89.0104,22.3614,104.5136,255.7765,0,U,69116,999,414,-.12029845E+1,-.1944792E-1,0
QIANFAN-158,2026-108P,2026-06-15T15:29:13.562304,14.07527557,.00167583,89.0099,22.3725,112.5334,247.7625,0,U,69117,999,413,-.1214905E+1,-.1908988E-1,0
QIANFAN-159,2026-108Q,2026-06-15T13:37:25.828320,14.08241958,.00167343,89.0101,22.3790,99.6573,260.6502,0,U,69118,999,412,-.12868524E+1,-.2038555E-1,0
QIANFAN-160,2026-108R,2026-06-15T20:22:58.333728,14.10430834,.00157188,89.0073,22.3519,113.8347,246.4487,0,U,69119,999,416,.3251684E-5,.2E-6,0
QIANFAN-161,2026-108S,2026-06-15T18:22:08.277312,14.10387870,.00158344,89.0106,22.3542,95.6573,264.6417,0,U,69120,999,415,-.12642803E+1,-.2078997E-1,0
QIANFAN-162,2026-108T,2026-06-15T18:19:37.841952,14.12684321,.00164116,89.0110,22.3538,118.2011,242.0834,0,U,69121,999,415,.25427308E-4,.61E-6,0
SMILE,2026-109A,2026-05-24T15:40:35.120928,14.57062785,.00091232,70.0007,229.2745,259.5159,100.4951,0,U,69123,999,80,-.42378883E-3,-.1976E-4,0
STARLINK-37726,2026-110A,2026-06-15T22:35:33.091872,15.49215397,.0001526,97.2835,3.1473,86.8030,273.3395,0,U,69124,999,540,.59374782E-3,.32365E-3,0
STARLINK-37722,2026-110B,2026-06-15T13:12:33.569856,15.49208597,.0001731,97.2822,2.9146,97.0248,263.1200,0,U,69125,999,535,.52493359E-3,.28583E-3,0
STARLINK-37715,2026-110C,2026-06-15T22:00:01.999584,15.33392523,.00019503,97.2839,3.2943,93.7787,172.6004,0,U,69126,999,545,.2675842E-2,.87172E-3,0
STARLINK-37706,2026-110D,2026-06-15T22:00:01.999584,15.33394722,.00017739,97.2840,3.3015,92.6551,188.7149,0,U,69127,999,545,.26887662E-2,.87604E-3,0
STARLINK-37723,2026-110E,2026-06-15T22:00:01.999584,15.33395216,.00016305,97.2840,3.3079,97.4866,198.8836,0,U,69128,999,545,.26292265E-2,.85641E-3,0
STARLINK-37720,2026-110F,2026-06-15T19:16:52.698144,15.49203581,.00020594,97.2846,3.0295,93.7195,266.4292,0,U,69129,999,538,.93081419E-3,.5089E-3,0
STARLINK-37533,2026-110G,2026-06-15T22:00:01.999584,15.33395503,.00013703,97.2839,3.3268,101.5008,239.8606,0,U,69130,999,545,.27033716E-2,.88087E-3,0
STARLINK-37530,2026-110H,2026-06-15T22:00:01.999584,15.33395018,.00019177,97.2838,3.3339,91.9850,264.3902,0,U,69131,999,545,.27402118E-2,.89303E-3,0
STARLINK-37660,2026-110J,2026-06-15T22:00:01.999584,15.42073186,.00016927,97.2841,3.3172,97.1570,211.2134,0,U,69132,999,545,-.60707177E-1,-.2314845E-1,0
STARLINK-37633,2026-110K,2026-06-15T22:00:01.999584,15.43639748,.00017284,97.2843,3.3361,110.2146,236.9845,0,U,69133,999,545,-.57392455E-1,-.2308071E-1,0
