QIANFAN-145             
1 69104U 26108A   26166.74376600 -.01923038  00000+0 -13566+1 0  9999
2 69104  89.0106  22.3872 0011851 115.0390 245.2022 14.01851653  4134
QIANFAN-146             
1 69105U 26108B   26166.92019303  .00000061  00000+0  24550-4 0  9992
2 69105  89.0113  22.3401 0017009 112.8435 247.4551 14.14384752  4177
QIANFAN-147             
1 69106U 26108C   26166.57957976 -.01947601  00000+0 -13296+1 0  9995
2 69106  89.0101  22.3987 0013833 131.2362 229.0014 14.03726001  4118
QIANFAN-148             
1 69107U 26108D   26166.93123669  .00000052  00000+0  23229-4 0  9998
2 69107  89.0089  22.3571 0017038 115.7540 244.5403 14.06373225  4167
QIANFAN-149             
1 69108U 26108E   26166.50160671 -.01881066  00000+0 -13253+1 0  9993
2 69108  89.0106  22.4064 0014076 130.3758 229.8653 14.01822833  4105
QIANFAN-150             
1 69109U 26108F   26166.62774412 -.02046775  00000+0 -13739+1 0  9991
2 69109  89.0104  22.3890 0018725 129.5566 230.7274 14.04834327  4128
QIANFAN-151             
1 69110U 26108G   26166.62453498 -.02063863  00000+0 -14004+1 0  9994
2 69110  89.0102  22.3880 0019044 130.4644 229.8201 14.04263137  4124
QIANFAN-152             
1 69111U 26108H   26166.68211119 -.01973708  00000+0 -12914+1 0  9998
2 69111  89.0106  22.3786 0014518 122.3750 237.8840 14.06139878  4138
QIANFAN-153             
1 69112U 26108J   26166.74989579 -.01963826  00000+0 -13333+1 0  9994
2 69112  89.0095  22.3690 0012253 126.4160 233.8153 14.04077041  4149
QIANFAN-154             
1 69113U 26108K   26166.74144009 -.02025316  00000+0 -13468+1 0  9999
2 69113  89.0110  22.3691 0013268 124.9921 235.2509 14.05354472  4142
QIANFAN-155             
1 69114U 26108L   26166.89054382  .00000155  00000+0  83961-4 0  9999
2 69114  89.0104  22.3529 0017448 113.7799 246.5216 14.07274489  4162
QIANFAN-156             
1 69115U 26108M   26166.65776203 -.01928425  00000+0 -12577+1 0  9990
2 69115  89.0108  22.3751 0017645 119.2580 241.0369 14.06201731  4137
QIANFAN-157             
1 69116U 26108N   26166.69293932 -.01944792  00000+0 -12030+1 0  9997
2 69116  89.0104  22.3614 0015467 104.5136 255.7765 14.09179997  4140
QIANFAN-158             
1 69117U 26108P   26166.64529586 -.01908988  00000+0 -12149+1 0  9998
2 69117  89.0099  22.3725 0016758 112.5334 247.7625 14.07527557  4132
QIANFAN-159             
1 69118U 26108Q   26166.56766005 -.02038555  00000+0 -12869+1 0  9993
2 69118  89.0101  22.3790 0016734  99.6573 260.6502 14.08241958  4129
QIANFAN-160             
1 69119U 26108R   26166.84928627  .00000020  00000+0  32517-5 0  9994
2 69119  89.0073  22.3519 0015718 113.8347 246.4487 14.10430834  4160
QIANFAN-161             
1 69120U 26108S   26166.76537358 -.02078997  00000+0 -12643+1 0  9999
2 69120  89.0106  22.3542 0015834  95.6573 264.6417 14.10387870  4157
QIANFAN-162             
1 69121U 26108T   26166.76363243  .00000061  00000+0  25427-4 0  9991
2 69121  89.0110  22.3538 0016411 118.2011 242.0834 14.12684321  4155
SMILE                   
1 69123U 26109A   26144.65318427 -.00001976  00000+0 -42379-3 0  9994
2 69123  70.0007 229.2745 0009123 259.5159 100.4951 14.57062785   802
STARLINK-37726          
1 69124U 26110A   26166.94135523  .00032365  00000+0  59375-3 0  9995
2 69124  97.2835   3.1473 0001526  86.8030 273.3395 15.49215397  5402
STARLINK-37722          
1 69125U 26110B   26166.55038854  .00028583  00000+0  52493-3 0  9993
2 69125  97.2822   2.9146 0001731  97.0248 263.1200 15.49208597  5356
STARLINK-37715          
1 69126U 26110C   26166.91668981  .00087172  00000+0  26758-2 0  9997
2 69126  97.2839   3.2943 0001950  93.7787 172.6004 15.33392523  5451
STARLINK-37706          
1 69127U 26110D   26166.91668981  .00087604  00000+0  26888-2 0  9992
2 69127  97.2840   3.3015 0001773  92.6551 188.7149 15.33394722  5456
STARLINK-37723          
1 69128U 26110E   26166.91668981  .00085641  00000+0  26292-2 0  9991
2 69128  97.2840   3.3079 0001630  97.4866 198.8836 15.33395216  5455
STARLINK-37720          
1 69129U 26110F   26166.80338771  .00050890  00000+0  93081-3 0  9990
2 69129  97.2846   3.0295 0002059  93.7195 266.4292 15.49203581  5389
STARLINK-37533          
1 69130U 26110G   26166.91668981  .00088087  00000+0  27034-2 0  9996
2 69130  97.2839   3.3268 0001370 101.5008 239.8606 15.33395503  5452
STARLINK-37530          
1 69131U 26110H   26166.91668981  .00089303  00000+0  27402-2 0  9998
2 69131  97.2838   3.3339 0001917  91.9850 264.3902 15.33395018  5458
STARLINK-37660          
1 69132U 26110J   26166.91668981 -.02314845  00000+0 -60707-1 0  9999
2 69132  97.2841   3.3172 0001692  97.1570 211.2134 15.42073186  5452
STARLINK-37633          
1 69133U 26110K   26166.91668981 -.02308071  00000+0 -57392-1 0  9990
2 69133  97.2843   3.3361 0001728 110.2146 236.9845 15.43639748  5457
